[{"OBJECT_NAME":"STARLINK-1954","OBJECT_ID":"2021-009H","EPOCH":"2026-03-09T23:20:25.352160","MEAN_MOTION":15.30849174,"ECCENTRICITY":0.00046184,"INCLINATION":53.0574,"RA_OF_ASC_NODE":8.8654,"ARG_OF_PERICENTER":103.3293,"MEAN_ANOMALY":256.8222,"EPHEMERIS_TYPE":0,"CLASSIFICATION_TYPE":"U","NORAD_CAT_ID":47555,"ELEMENT_SET_NO":999,"REV_AT_EPOCH":28100,"BSTAR":0.0022371791,"MEAN_MOTION_DOT":0.00067883,"MEAN_MOTION_DDOT":0},{"OBJECT_NAME":"STARLINK-34773","OBJECT_ID":"2025-161K","EPOCH":"2026-03-09T21:30:34.322112","MEAN_MOTION":15.3020046,"ECCENTRICITY":9.655e-5,"INCLINATION":53.1583,"RA_OF_ASC_NODE":293.0884,"ARG_OF_PERICENTER":88.6247,"MEAN_ANOMALY":271.4864,"EPHEMERIS_TYPE":0,"CLASSIFICATION_TYPE":"U","NORAD_CAT_ID":65024,"ELEMENT_SET_NO":999,"REV_AT_EPOCH":3535,"BSTAR":0.00079867893,"MEAN_MOTION_DOT":0.0002337,"MEAN_MOTION_DDOT":0}]
